{"type": "FeatureCollection", "features": [ {"type": "Feature", "properties": {"norad_id": 65304, "name": "DRAGON CRS-33", "group": "stations", "lat": -7.669807076106213, "lon": -84.2355297340914, "alt_km": 419.50116930571585, "timestamp": "2025-12-23T09:49:05.830408+00:00", "meta": {"OBJECT_NAME": "DRAGON CRS-33", "OBJECT_ID": "2025-186A", "EPOCH": "2025-12-22T15:58:44.561856", "MEAN_MOTION": 15.49732869, "ECCENTRICITY": 0.00031542, "INCLINATION": 51.6326, "RA_OF_ASC_NODE": 93.3232, "ARG_OF_PERICENTER": 286.8846, "MEAN_ANOMALY": 73.1797, "EPHEMERIS_TYPE": 0, "CLASSIFICATION_TYPE": "U", "NORAD_CAT_ID": 65304, "ELEMENT_SET_NO": 999, "REV_AT_EPOCH": 11, "BSTAR": 0.00022188304, "MEAN_MOTION_DOT": 0.0001211, "MEAN_MOTION_DDOT": 0}, "tle": {"line1": "1 65304U 25186A   25356.66579354  .00012110  00000+0  22188-3 0  9994", "line2": "2 65304  51.6326  93.3232 0003154 286.8846  73.1797 15.49732869   110"}}, "geometry": {"type": "Point", "coordinates": [-84.2355297340914, -7.669807076106213]}}, {"type": "Feature", "properties": {"norad_id": 65586, "name": "PROGRESS-MS 32", "group": "stations", "lat": -7.669807579560355, "lon": -84.23552932624861, "alt_km": 419.50116933952813, "timestamp": "2025-12-23T09:49:05.830418+00:00", "meta": {"OBJECT_NAME": "PROGRESS-MS 32", "OBJECT_ID": "2025-204A", "EPOCH": "2025-12-22T15:58:44.561856", "MEAN_MOTION": 15.49732869, "ECCENTRICITY": 0.00031542, "INCLINATION": 51.6326, "RA_OF_ASC_NODE": 93.3232, "ARG_OF_PERICENTER": 286.8846, "MEAN_ANOMALY": 73.1797, "EPHEMERIS_TYPE": 0, "CLASSIFICATION_TYPE": "U", "NORAD_CAT_ID": 65586, "ELEMENT_SET_NO": 999, "REV_AT_EPOCH": 27, "BSTAR": 0.00022188304, "MEAN_MOTION_DOT": 0.0001211, "MEAN_MOTION_DDOT": 0}, "tle": {"line1": "1 65586U 25204A   25356.66579354  .00012110  00000+0  22188-3 0  9997", "line2": "2 65586  51.6326  93.3232 0003154 286.8846  73.1797 15.49732869   279"}}, "geometry": {"type": "Point", "coordinates": [-84.23552932624861, -7.669807579560355]}}, {"type": "Feature", "properties": {"norad_id": 65616, "name": "CYGNUS NG-23", "group": "stations", "lat": -7.66980808301642, "lon": -84.23552891840427, "alt_km": 419.50116937334224, "timestamp": "2025-12-23T09:49:05.830428+00:00", "meta": {"OBJECT_NAME": "CYGNUS NG-23", "OBJECT_ID": "2025-208A", "EPOCH": "2025-12-22T15:58:44.561856", "MEAN_MOTION": 15.49732869, "ECCENTRICITY": 0.00031542, "INCLINATION": 51.6326, "RA_OF_ASC_NODE": 93.3232, "ARG_OF_PERICENTER": 286.8846, "MEAN_ANOMALY": 73.1797, "EPHEMERIS_TYPE": 0, "CLASSIFICATION_TYPE": "U", "NORAD_CAT_ID": 65616, "ELEMENT_SET_NO": 999, "REV_AT_EPOCH": 22, "BSTAR": 0.00022188304, "MEAN_MOTION_DOT": 0.0001211, "MEAN_MOTION_DDOT": 0}, "tle": {"line1": "1 65616U 25208A   25356.66579354  .00012110  00000+0  22188-3 0  9995", "line2": "2 65616  51.6326  93.3232 0003154 286.8846  73.1797 15.49732869   228"}}, "geometry": {"type": "Point", "coordinates": [-84.23552891840427, -7.66980808301642]}}, {"type": "Feature", "properties": {"norad_id": 65729, "name": "DRAGONFLY", "group": "stations", "lat": 10.267533281147625, "lon": 89.23690210606455, "alt_km": 338.13056664812575, "timestamp": "2025-12-23T09:49:05.830438+00:00", "meta": {"OBJECT_NAME": "DRAGONFLY", "OBJECT_ID": "1998-067XH", "EPOCH": "2025-12-22T15:29:37.121856", "MEAN_MOTION": 15.75220895, "ECCENTRICITY": 0.00077856, "INCLINATION": 51.6244, "RA_OF_ASC_NODE": 84.9151, "ARG_OF_PERICENTER": 337.8608, "MEAN_ANOMALY": 22.2054, "EPHEMERIS_TYPE": 0, "CLASSIFICATION_TYPE": "U", "NORAD_CAT_ID": 65729, "ELEMENT_SET_NO": 999, "REV_AT_EPOCH": 1472, "BSTAR": 0.0012171562, "MEAN_MOTION_DOT": 0.0019065, "MEAN_MOTION_DDOT": 0}, "tle": {"line1": "1 65729U 98067XH  25356.64556854  .00190650  00000+0  12172-2 0  9998", "line2": "2 65729  51.6244  84.9151 0007785 337.8608  22.2054 15.75220895 14726"}}, "geometry": {"type": "Point", "coordinates": [89.23690210606455, 10.267533281147625]}}, {"type": "Feature", "properties": {"norad_id": 65731, "name": "1998-067XK", "group": "stations", "lat": 36.97847722875318, "lon": -133.60760292392024, "alt_km": 363.673491665033, "timestamp": "2025-12-23T09:49:05.830449+00:00", "meta": {"OBJECT_NAME": "1998-067XK", "OBJECT_ID": "1998-067XK", "EPOCH": "2025-12-22T11:50:52.395936", "MEAN_MOTION": 15.67550975, "ECCENTRICITY": 0.00048767, "INCLINATION": 51.6296, "RA_OF_ASC_NODE": 87.6784, "ARG_OF_PERICENTER": 307.2802, "MEAN_ANOMALY": 52.7749, "EPHEMERIS_TYPE": 0, "CLASSIFICATION_TYPE": "U", "NORAD_CAT_ID": 65731, "ELEMENT_SET_NO": 999, "REV_AT_EPOCH": 1467, "BSTAR": 0.00098825287, "MEAN_MOTION_DOT": 0.00110692, "MEAN_MOTION_DDOT": 0}, "tle": {"line1": "1 65731U 98067XK  25356.49366199  .00110692  00000+0  98825-3 0  9993", "line2": "2 65731  51.6296  87.6784 0004876 307.2802  52.7749 15.67550975 14672"}}, "geometry": {"type": "Point", "coordinates": [-133.60760292392024, 36.97847722875318]}}, {"type": "Feature", "properties": {"norad_id": 65732, "name": "RSP-03", "group": "stations", "lat": -34.2333330368245, "lon": -65.31603903231758, "alt_km": 359.17576181095046, "timestamp": "2025-12-23T09:49:05.830461+00:00", "meta": {"OBJECT_NAME": "RSP-03", "OBJECT_ID": "1998-067XL", "EPOCH": "2025-12-22T13:00:59.275008", "MEAN_MOTION": 15.71055335, "ECCENTRICITY": 0.00058331, "INCLINATION": 51.6262, "RA_OF_ASC_NODE": 86.4899, "ARG_OF_PERICENTER": 314.1528, "MEAN_ANOMALY": 45.8989, "EPHEMERIS_TYPE": 0, "CLASSIFICATION_TYPE": "U", "NORAD_CAT_ID": 65732, "ELEMENT_SET_NO": 999, "REV_AT_EPOCH": 1470, "BSTAR": 0.0011094477, "MEAN_MOTION_DOT": 0.00144397, "MEAN_MOTION_DDOT": 0}, "tle": {"line1": "1 65732U 98067XL  25356.54235272  .00144397  00000+0  11094-2 0  9998", "line2": "2 65732  51.6262  86.4899 0005833 314.1528  45.8989 15.71055335 14704"}}, "geometry": {"type": "Point", "coordinates": [-65.31603903231758, -34.2333330368245]}}, {"type": "Feature", "properties": {"norad_id": 65733, "name": "GHS-01", "group": "stations", "lat": 42.673674581973195, "lon": 127.07549866735734, "alt_km": 324.45901425503325, "timestamp": "2025-12-23T09:49:05.830471+00:00", "meta": {"OBJECT_NAME": "GHS-01", "OBJECT_ID": "1998-067XM", "EPOCH": "2025-12-22T16:51:43.023456", "MEAN_MOTION": 15.79178849, "ECCENTRICITY": 0.00088219, "INCLINATION": 51.6291, "RA_OF_ASC_NODE": 83.8081, "ARG_OF_PERICENTER": 342.1592, "MEAN_ANOMALY": 17.9098, "EPHEMERIS_TYPE": 0, "CLASSIFICATION_TYPE": "U", "NORAD_CAT_ID": 65733, "ELEMENT_SET_NO": 999, "REV_AT_EPOCH": 1475, "BSTAR": 0.0013662085, "MEAN_MOTION_DOT": 0.00257457, "MEAN_MOTION_DDOT": 0}, "tle": {"line1": "1 65733U 98067XM  25356.70258129  .00257457  00000+0  13662-2 0  9998", "line2": "2 65733  51.6291  83.8081 0008821 342.1592  17.9098 15.79178849 14753"}}, "geometry": {"type": "Point", "coordinates": [127.07549866735734, 42.673674581973195]}}, {"type": "Feature", "properties": {"norad_id": 65941, "name": "YOTSUBA-KULOVER", "group": "stations", "lat": -2.0884344814265483, "lon": 84.63935696647091, "alt_km": 384.8637590393746, "timestamp": "2025-12-23T09:49:05.830481+00:00", "meta": {"OBJECT_NAME": "YOTSUBA-KULOVER", "OBJECT_ID": "1998-067XN", "EPOCH": "2025-12-22T12:18:58.548960", "MEAN_MOTION": 15.60714996, "ECCENTRICITY": 0.00021092, "INCLINATION": 51.6295, "RA_OF_ASC_NODE": 90.8089, "ARG_OF_PERICENTER": 341.8055, "MEAN_ANOMALY": 18.2862, "EPHEMERIS_TYPE": 0, "CLASSIFICATION_TYPE": "U", "NORAD_CAT_ID": 65941, "ELEMENT_SET_NO": 999, "REV_AT_EPOCH": 1138, "BSTAR": 0.00080270144, "MEAN_MOTION_DOT": 0.00068061, "MEAN_MOTION_DDOT": 0}, "tle": {"line1": "1 65941U 98067XN  25356.51317765  .00068061  00000+0  80270-3 0  9991", "line2": "2 65941  51.6295  90.8089 0002109 341.8055  18.2862 15.60714996 11385"}}, "geometry": {"type": "Point", "coordinates": [84.63935696647091, -2.0884344814265483]}}, {"type": "Feature", "properties": {"norad_id": 65942, "name": "BOTAN", "group": "stations", "lat": 46.188229934319104, "lon": -150.37981251425185, "alt_km": 368.5059965708442, "timestamp": "2025-12-23T09:49:05.830492+00:00", "meta": {"OBJECT_NAME": "BOTAN", "OBJECT_ID": "1998-067XP", "EPOCH": "2025-12-22T07:17:02.509728", "MEAN_MOTION": 15.64805517, "ECCENTRICITY": 0.00031122, "INCLINATION": 51.6283, "RA_OF_ASC_NODE": 90.9078, "ARG_OF_PERICENTER": 318.7343, "MEAN_ANOMALY": 41.3416, "EPHEMERIS_TYPE": 0, "CLASSIFICATION_TYPE": "U", "NORAD_CAT_ID": 65942, "ELEMENT_SET_NO": 999, "REV_AT_EPOCH": 1136, "BSTAR": 0.0012003898, "MEAN_MOTION_DOT": 0.0012058, "MEAN_MOTION_DDOT": 0}, "tle": {"line1": "1 65942U 98067XP  25356.30350127  .00120580  00000+0  12004-2 0  9992", "line2": "2 65942  51.6283  90.9078 0003112 318.7343  41.3416 15.64805517 11364"}}, "geometry": {"type": "Point", "coordinates": [-150.37981251425185, 46.188229934319104]}}, {"type": "Feature", "properties": {"norad_id": 65943, "name": "E-KAGAKU-1", "group": "stations", "lat": -2.5342943783658445, "lon": 84.29326495474949, "alt_km": 385.8001954325073, "timestamp": "2025-12-23T09:49:05.830517+00:00", "meta": {"OBJECT_NAME": "E-KAGAKU-1", "OBJECT_ID": "1998-067XQ", "EPOCH": "2025-12-22T10:46:55.533504", "MEAN_MOTION": 15.60710313, "ECCENTRICITY": 0.00012968, "INCLINATION": 51.6319, "RA_OF_ASC_NODE": 91.1385, "ARG_OF_PERICENTER": 295.9007, "MEAN_ANOMALY": 64.1852, "EPHEMERIS_TYPE": 0, "CLASSIFICATION_TYPE": "U", "NORAD_CAT_ID": 65943, "ELEMENT_SET_NO": 999, "REV_AT_EPOCH": 1137, "BSTAR": 0.00086344374, "MEAN_MOTION_DOT": 0.00073283, "MEAN_MOTION_DDOT": 0}, "tle": {"line1": "1 65943U 98067XQ  25356.44925386  .00073283  00000+0  86344-3 0  9999", "line2": "2 65943  51.6319  91.1385 0001296 295.9007  64.1852 15.60710313 11376"}}, "geometry": {"type": "Point", "coordinates": [84.29326495474949, -2.5342943783658445]}}]}